{"type": "FeatureCollection", "features": [ {"type": "Feature", "properties": {"norad_id": 30306, "name": "FENGYUN 1C DEB", "group": "fengyun-1c-debris", "lat": 80.95961880192128, "lon": -82.35703749372674, "alt_km": 788.7761999212389, "timestamp": "2025-12-10T18:57:00.340869+00:00", "meta": {"OBJECT_NAME": "FENGYUN 1C DEB", "OBJECT_ID": "1999-025ZT", "EPOCH": "2025-12-10T01:42:34.676352", "MEAN_MOTION": 14.2818205, "ECCENTRICITY": 0.01134661, "INCLINATION": 98.5869, "RA_OF_ASC_NODE": 25.192, "ARG_OF_PERICENTER": 5.3778, "MEAN_ANOMALY": 354.8593, "EPHEMERIS_TYPE": 0, "CLASSIFICATION_TYPE": "U", "NORAD_CAT_ID": 30306, "ELEMENT_SET_NO": 999, "REV_AT_EPOCH": 97643, "BSTAR": 0.0013088623, "MEAN_MOTION_DOT": 3.448e-05, "MEAN_MOTION_DDOT": 0}, "tle": {"line1": "1 30306U 99025ZT  25344.07123468  .00003448  00000+0  13089-2 0  9997", "line2": "2 30306  98.5869  25.1920 0113466   5.3778 354.8593 14.28182050976436"}}, "geometry": {"type": "Point", "coordinates": [-82.35703749372674, 80.95961880192128]}}, {"type": "Feature", "properties": {"norad_id": 30309, "name": "FENGYUN 1C DEB", "group": "fengyun-1c-debris", "lat": -57.94601120259529, "lon": -153.0850675665821, "alt_km": 872.4968298496578, "timestamp": "2025-12-10T18:57:00.340879+00:00", "meta": {"OBJECT_NAME": "FENGYUN 1C DEB", "OBJECT_ID": "1999-025ZW", "EPOCH": "2025-12-10T02:17:56.911776", "MEAN_MOTION": 13.93516325, "ECCENTRICITY": 0.00932798, "INCLINATION": 99.2264, "RA_OF_ASC_NODE": 41.2676, "ARG_OF_PERICENTER": 199.0058, "MEAN_ANOMALY": 160.7613, "EPHEMERIS_TYPE": 0, "CLASSIFICATION_TYPE": "U", "NORAD_CAT_ID": 30309, "ELEMENT_SET_NO": 999, "REV_AT_EPOCH": 95996, "BSTAR": 0.00054991042, "MEAN_MOTION_DOT": 7.02e-06, "MEAN_MOTION_DDOT": 0}, "tle": {"line1": "1 30309U 99025ZW  25344.09579759  .00000702  00000+0  54991-3 0  9998", "line2": "2 30309  99.2264  41.2676 0093279 199.0058 160.7613 13.93516325959967"}}, "geometry": {"type": "Point", "coordinates": [-153.0850675665821, -57.94601120259529]}}, {"type": "Feature", "properties": {"norad_id": 30310, "name": "FENGYUN 1C DEB", "group": "fengyun-1c-debris", "lat": 55.31101223166414, "lon": -8.226217715000029, "alt_km": 752.6204806508058, "timestamp": "2025-12-10T18:57:00.340889+00:00", "meta": {"OBJECT_NAME": "FENGYUN 1C DEB", "OBJECT_ID": "1999-025ZX", "EPOCH": "2025-12-09T12:00:17.507232", "MEAN_MOTION": 14.08371604, "ECCENTRICITY": 0.02410292, "INCLINATION": 98.6651, "RA_OF_ASC_NODE": 3.2618, "ARG_OF_PERICENTER": 6.6859, "MEAN_ANOMALY": 353.7431, "EPHEMERIS_TYPE": 0, "CLASSIFICATION_TYPE": "U", "NORAD_CAT_ID": 30310, "ELEMENT_SET_NO": 999, "REV_AT_EPOCH": 96686, "BSTAR": 0.0011248563, "MEAN_MOTION_DOT": 2.472e-05, "MEAN_MOTION_DDOT": 0}, "tle": {"line1": "1 30310U 99025ZX  25343.50020263  .00002472  00000+0  11249-2 0  9990", "line2": "2 30310  98.6651   3.2618 0241029   6.6859 353.7431 14.08371604966861"}}, "geometry": {"type": "Point", "coordinates": [-8.226217715000029, 55.31101223166414]}}, {"type": "Feature", "properties": {"norad_id": 30311, "name": "FENGYUN 1C DEB", "group": "fengyun-1c-debris", "lat": 71.8175381252709, "lon": -70.10027008869208, "alt_km": 975.9629744798231, "timestamp": "2025-12-10T18:57:00.340900+00:00", "meta": {"OBJECT_NAME": "FENGYUN 1C DEB", "OBJECT_ID": "1999-025ZY", "EPOCH": "2025-12-09T16:17:04.931520", "MEAN_MOTION": 13.77884593, "ECCENTRICITY": 0.0165196, "INCLINATION": 99.1397, "RA_OF_ASC_NODE": 79.4803, "ARG_OF_PERICENTER": 205.0914, "MEAN_ANOMALY": 154.2144, "EPHEMERIS_TYPE": 0, "CLASSIFICATION_TYPE": "U", "NORAD_CAT_ID": 30311, "ELEMENT_SET_NO": 999, "REV_AT_EPOCH": 94918, "BSTAR": 0.00074160306, "MEAN_MOTION_DOT": 7.79e-06, "MEAN_MOTION_DDOT": 0}, "tle": {"line1": "1 30311U 99025ZY  25343.67852930  .00000779  00000+0  74160-3 0  9993", "line2": "2 30311  99.1397  79.4803 0165196 205.0914 154.2144 13.77884593949185"}}, "geometry": {"type": "Point", "coordinates": [-70.10027008869208, 71.8175381252709]}}, {"type": "Feature", "properties": {"norad_id": 30312, "name": "FENGYUN 1C DEB", "group": "fengyun-1c-debris", "lat": 80.49080860260126, "lon": -4.745048557856028, "alt_km": 737.1471223595672, "timestamp": "2025-12-10T18:57:00.340910+00:00", "meta": {"OBJECT_NAME": "FENGYUN 1C DEB", "OBJECT_ID": "1999-025ZZ", "EPOCH": "2025-12-10T05:33:29.630016", "MEAN_MOTION": 14.45756536, "ECCENTRICITY": 0.0011841, "INCLINATION": 98.8658, "RA_OF_ASC_NODE": 63.3918, "ARG_OF_PERICENTER": 215.4655, "MEAN_ANOMALY": 208.6581, "EPHEMERIS_TYPE": 0, "CLASSIFICATION_TYPE": "U", "NORAD_CAT_ID": 30312, "ELEMENT_SET_NO": 999, "REV_AT_EPOCH": 97884, "BSTAR": 0.0039097, "MEAN_MOTION_DOT": 0.00013849, "MEAN_MOTION_DDOT": 0}, "tle": {"line1": "1 30312U 99025ZZ  25344.23159294  .00013849  00000+0  39097-2 0  9991", "line2": "2 30312  98.8658  63.3918 0011841 215.4655 208.6581 14.45756536978840"}}, "geometry": {"type": "Point", "coordinates": [-4.745048557856028, 80.49080860260126]}}, {"type": "Feature", "properties": {"norad_id": 30313, "name": "FENGYUN 1C DEB", "group": "fengyun-1c-debris", "lat": -45.665892942537496, "lon": 80.137928735273, "alt_km": 778.0196031418609, "timestamp": "2025-12-10T18:57:00.340920+00:00", "meta": {"OBJECT_NAME": "FENGYUN 1C DEB", "OBJECT_ID": "1999-025AAA", "EPOCH": "2025-12-10T05:47:58.490016", "MEAN_MOTION": 14.25422346, "ECCENTRICITY": 0.0056324, "INCLINATION": 98.8749, "RA_OF_ASC_NODE": 70.3813, "ARG_OF_PERICENTER": 343.448, "MEAN_ANOMALY": 40.384, "EPHEMERIS_TYPE": 0, "CLASSIFICATION_TYPE": "U", "NORAD_CAT_ID": 30313, "ELEMENT_SET_NO": 999, "REV_AT_EPOCH": 97054, "BSTAR": 0.0024003, "MEAN_MOTION_DOT": 5.717e-05, "MEAN_MOTION_DDOT": 0}, "tle": {"line1": "1 30313U 99025AAA 25344.24164919  .00005717  00000+0  24003-2 0  9999", "line2": "2 30313  98.8749  70.3813 0056324 343.4480  40.3840 14.25422346970542"}}, "geometry": {"type": "Point", "coordinates": [80.137928735273, -45.665892942537496]}}, {"type": "Feature", "properties": {"norad_id": 30314, "name": "FENGYUN 1C DEB", "group": "fengyun-1c-debris", "lat": 31.450050984715617, "lon": 0.9873088860842699, "alt_km": 971.8202602873916, "timestamp": "2025-12-10T18:57:00.340930+00:00", "meta": {"OBJECT_NAME": "FENGYUN 1C DEB", "OBJECT_ID": "1999-025AAB", "EPOCH": "2025-12-09T11:24:09.993024", "MEAN_MOTION": 14.01175795, "ECCENTRICITY": 0.01423984, "INCLINATION": 98.3807, "RA_OF_ASC_NODE": 174.6072, "ARG_OF_PERICENTER": 7.1125, "MEAN_ANOMALY": 353.2018, "EPHEMERIS_TYPE": 0, "CLASSIFICATION_TYPE": "U", "NORAD_CAT_ID": 30314, "ELEMENT_SET_NO": 999, "REV_AT_EPOCH": 96063, "BSTAR": 0.0016432879, "MEAN_MOTION_DOT": 2.658e-05, "MEAN_MOTION_DDOT": 0}, "tle": {"line1": "1 30314U 99025AAB 25343.47511566  .00002658  00000+0  16433-2 0  9997", "line2": "2 30314  98.3807 174.6072 0142398   7.1125 353.2018 14.01175795960634"}}, "geometry": {"type": "Point", "coordinates": [0.9873088860842699, 31.450050984715617]}}, {"type": "Feature", "properties": {"norad_id": 30315, "name": "FENGYUN 1C DEB", "group": "fengyun-1c-debris", "lat": -6.659843068066522, "lon": 173.34494870035002, "alt_km": 857.7615244731614, "timestamp": "2025-12-10T18:57:00.340940+00:00", "meta": {"OBJECT_NAME": "FENGYUN 1C DEB", "OBJECT_ID": "1999-025AAC", "EPOCH": "2025-12-10T12:01:27.067008", "MEAN_MOTION": 14.19059221, "ECCENTRICITY": 0.0035357, "INCLINATION": 98.6021, "RA_OF_ASC_NODE": 354.0776, "ARG_OF_PERICENTER": 6.7919, "MEAN_ANOMALY": 146.4218, "EPHEMERIS_TYPE": 0, "CLASSIFICATION_TYPE": "U", "NORAD_CAT_ID": 30315, "ELEMENT_SET_NO": 999, "REV_AT_EPOCH": 97675, "BSTAR": 0.00047691, "MEAN_MOTION_DOT": 9.6e-06, "MEAN_MOTION_DDOT": 0}, "tle": {"line1": "1 30315U 99025AAC 25344.50100772  .00000960  00000+0  47691-3 0  9991", "line2": "2 30315  98.6021 354.0776 0035357   6.7919 146.4218 14.19059221976751"}}, "geometry": {"type": "Point", "coordinates": [173.34494870035002, -6.659843068066522]}}, {"type": "Feature", "properties": {"norad_id": 30316, "name": "FENGYUN 1C DEB", "group": "fengyun-1c-debris", "lat": -19.8586314352606, "lon": 90.2835156234581, "alt_km": 700.889789147609, "timestamp": "2025-12-10T18:57:00.340950+00:00", "meta": {"OBJECT_NAME": "FENGYUN 1C DEB", "OBJECT_ID": "1999-025AAD", "EPOCH": "2025-12-10T12:26:40.485696", "MEAN_MOTION": 14.55996343, "ECCENTRICITY": 0.0035822, "INCLINATION": 98.6479, "RA_OF_ASC_NODE": 86.8517, "ARG_OF_PERICENTER": 46.9345, "MEAN_ANOMALY": 313.4841, "EPHEMERIS_TYPE": 0, "CLASSIFICATION_TYPE": "U", "NORAD_CAT_ID": 30316, "ELEMENT_SET_NO": 999, "REV_AT_EPOCH": 98304, "BSTAR": 0.0033, "MEAN_MOTION_DOT": 0.00014623, "MEAN_MOTION_DDOT": 0}, "tle": {"line1": "1 30316U 99025AAD 25344.51852414  .00014623  00000+0  33000-2 0  9999", "line2": "2 30316  98.6479  86.8517 0035822  46.9345 313.4841 14.55996343983041"}}, "geometry": {"type": "Point", "coordinates": [90.2835156234581, -19.8586314352606]}}, {"type": "Feature", "properties": {"norad_id": 30317, "name": "FENGYUN 1C DEB", "group": "fengyun-1c-debris", "lat": -79.02729695189578, "lon": 112.40692468691964, "alt_km": 860.6232036092924, "timestamp": "2025-12-10T18:57:00.340960+00:00", "meta": {"OBJECT_NAME": "FENGYUN 1C DEB", "OBJECT_ID": "1999-025AAE", "EPOCH": "2025-12-10T10:52:23.162304", "MEAN_MOTION": 14.06945173, "ECCENTRICITY": 0.0024148, "INCLINATION": 98.7864, "RA_OF_ASC_NODE": 344.9908, "ARG_OF_PERICENTER": 283.5217, "MEAN_ANOMALY": 76.3262, "EPHEMERIS_TYPE": 0, "CLASSIFICATION_TYPE": "U", "NORAD_CAT_ID": 30317, "ELEMENT_SET_NO": 999, "REV_AT_EPOCH": 96981, "BSTAR": 0.00025423, "MEAN_MOTION_DOT": 3.82e-06, "MEAN_MOTION_DDOT": 0}, "tle": {"line1": "1 30317U 99025AAE 25344.45304586  .00000382  00000+0  25423-3 0  9993", "line2": "2 30317  98.7864 344.9908 0024148 283.5217  76.3262 14.06945173969811"}}, "geometry": {"type": "Point", "coordinates": [112.40692468691964, -79.02729695189578]}}]}